{"fetched_at":"2026-07-21T17:53:07.094Z","source":"https://celestrak.org/NORAD/elements/gp.php?GROUP=planet&FORMAT=JSON","constellation":"tanager","records":[{"OBJECT_NAME":"TANAGER-1","OBJECT_ID":"2024-149AR","EPOCH":"2026-07-20T23:34:18.928128","CLASSIFICATION_TYPE":"U","MEAN_MOTION":15.43878726,"ECCENTRICITY":0.00019706,"INCLINATION":97.2316,"RA_OF_ASC_NODE":296.082,"ARG_OF_PERICENTER":137.5704,"MEAN_ANOMALY":222.5698,"EPHEMERIS_TYPE":0,"NORAD_CAT_ID":60507,"ELEMENT_SET_NO":999,"REV_AT_EPOCH":10825,"BSTAR":0.000006777668,"MEAN_MOTION_DOT":0.00000223,"MEAN_MOTION_DDOT":0}]}
